KUIPER-00027            
1 63740U 25088S   25365.25256945  .00009104  00000+0  12206-2 0  9998
2 63740  51.9020  38.2059 0003497 306.9373  53.1269 14.79966150 37486
KUIPER-00028            
1 63741U 25088T   25365.27039382  .00005648  00000+0  77192-3 0  9990
2 63741  51.9009  36.1074 0003955 318.7718  41.2945 14.79782975 37920
KUIPER-00029            
1 63742U 25088U   25365.33334491  .00015301  00000+0  20742-2 0  9992
2 63742  51.9016  33.8825 0002129 358.3812  55.7800 14.79053776  1756
KUIPER-00030            
1 63743U 25088V   25365.30381473 -.00001868  00000+0 -21521-3 0  9994
2 63743  51.9011  52.9409 0014263 201.6817 158.3543 14.79921777 37500
KUIPER-00031            
1 63744U 25088W   25365.25100640  .00007257  00000+0  98102-3 0  9999
2 63744  51.9008  39.2464 0002724 251.9551 108.1114 14.79885486 37400
KUIPER-00032            
1 63745U 25088X   25365.27066374  .00023365  00000+0  70388-3 0  9991
2 63745  51.8720 354.2091 0002852 242.9871 117.0823 15.34217496 39033
KUIPER-00033            
1 63746U 25088Y   25365.21857960  .00000895  00000+0  14650-3 0  9998
2 63746  51.8932  69.3730 0000997  11.1720 348.9264 14.79909115 37463
KUIPER-00034            
1 63747U 25088Z   25365.25898556  .00001130  00000+0  17714-3 0  9996
2 63747  51.9021  31.7118 0000620 318.5911  41.5004 14.79950579 37677
