<?xml version="1.0" encoding="UTF-8"?>
<ndm xmlns:xsi="http://www.w3.org/2001/XMLSchema-instance" xsi:noNamespaceSchemaLocation="https://sanaregistry.org/r/ndmxml_unqualified/ndmxml-2.0.0-master-2.0.xsd">
<omm id="CCSDS_OMM_VERS" version="2.0">
<header><CREATION_DATE/><ORIGINATOR/></header><body><segment><metadata><OBJECT_NAME>KUIPER-00027</OBJECT_NAME><OBJECT_ID>2025-088S</OBJECT_ID><CENTER_NAME>EARTH</CENTER_NAME><REF_FRAME>TEME</REF_FRAME><TIME_SYSTEM>UTC</TIME_SYSTEM><MEAN_ELEMENT_THEORY>SGP4</MEAN_ELEMENT_THEORY></metadata><data><meanElements><EPOCH>2025-12-31T06:03:42.000480</EPOCH><MEAN_MOTION>14.79966150</MEAN_MOTION><ECCENTRICITY>.00034975</ECCENTRICITY><INCLINATION>51.9020</INCLINATION><RA_OF_ASC_NODE>38.2059</RA_OF_ASC_NODE><ARG_OF_PERICENTER>306.9373</ARG_OF_PERICENTER><MEAN_ANOMALY>53.1269</MEAN_ANOMALY></meanElements><tleParameters><EPHEMERIS_TYPE>0</EPHEMERIS_TYPE><CLASSIFICATION_TYPE>U</CLASSIFICATION_TYPE><NORAD_CAT_ID>63740</NORAD_CAT_ID><ELEMENT_SET_NO>999</ELEMENT_SET_NO><REV_AT_EPOCH>3748</REV_AT_EPOCH><BSTAR>.1220644E-2</BSTAR><MEAN_MOTION_DOT>.9104E-4</MEAN_MOTION_DOT><MEAN_MOTION_DDOT>0</MEAN_MOTION_DDOT></tleParameters></data></segment></body></omm>
<omm id="CCSDS_OMM_VERS" version="2.0">
<header><CREATION_DATE/><ORIGINATOR/></header><body><segment><metadata><OBJECT_NAME>KUIPER-00028</OBJECT_NAME><OBJECT_ID>2025-088T</OBJECT_ID><CENTER_NAME>EARTH</CENTER_NAME><REF_FRAME>TEME</REF_FRAME><TIME_SYSTEM>UTC</TIME_SYSTEM><MEAN_ELEMENT_THEORY>SGP4</MEAN_ELEMENT_THEORY></metadata><data><meanElements><EPOCH>2025-12-31T06:29:22.026048</EPOCH><MEAN_MOTION>14.79782975</MEAN_MOTION><ECCENTRICITY>.00039552</ECCENTRICITY><INCLINATION>51.9009</INCLINATION><RA_OF_ASC_NODE>36.1074</RA_OF_ASC_NODE><ARG_OF_PERICENTER>318.7718</ARG_OF_PERICENTER><MEAN_ANOMALY>41.2945</MEAN_ANOMALY></meanElements><tleParameters><EPHEMERIS_TYPE>0</EPHEMERIS_TYPE><CLASSIFICATION_TYPE>U</CLASSIFICATION_TYPE><NORAD_CAT_ID>63741</NORAD_CAT_ID><ELEMENT_SET_NO>999</ELEMENT_SET_NO><REV_AT_EPOCH>3792</REV_AT_EPOCH><BSTAR>.77191952E-3</BSTAR><MEAN_MOTION_DOT>.5648E-4</MEAN_MOTION_DOT><MEAN_MOTION_DDOT>0</MEAN_MOTION_DDOT></tleParameters></data></segment></body></omm>
<omm id="CCSDS_OMM_VERS" version="2.0">
<header><CREATION_DATE/><ORIGINATOR/></header><body><segment><metadata><OBJECT_NAME>KUIPER-00029</OBJECT_NAME><OBJECT_ID>2025-088U</OBJECT_ID><CENTER_NAME>EARTH</CENTER_NAME><REF_FRAME>TEME</REF_FRAME><TIME_SYSTEM>UTC</TIME_SYSTEM><MEAN_ELEMENT_THEORY>SGP4</MEAN_ELEMENT_THEORY></metadata><data><meanElements><EPOCH>2025-12-31T08:00:01.000224</EPOCH><MEAN_MOTION>14.79053776</MEAN_MOTION><ECCENTRICITY>.00021296</ECCENTRICITY><INCLINATION>51.9016</INCLINATION><RA_OF_ASC_NODE>33.8825</RA_OF_ASC_NODE><ARG_OF_PERICENTER>358.3812</ARG_OF_PERICENTER><MEAN_ANOMALY>55.7800</MEAN_ANOMALY></meanElements><tleParameters><EPHEMERIS_TYPE>0</EPHEMERIS_TYPE><CLASSIFICATION_TYPE>U</CLASSIFICATION_TYPE><NORAD_CAT_ID>63742</NORAD_CAT_ID><ELEMENT_SET_NO>999</ELEMENT_SET_NO><REV_AT_EPOCH>175</REV_AT_EPOCH><BSTAR>.20742024E-2</BSTAR><MEAN_MOTION_DOT>.15301E-3</MEAN_MOTION_DOT><MEAN_MOTION_DDOT>0</MEAN_MOTION_DDOT></tleParameters></data></segment></body></omm>
<omm id="CCSDS_OMM_VERS" version="2.0">
<header><CREATION_DATE/><ORIGINATOR/></header><body><segment><metadata><OBJECT_NAME>KUIPER-00030</OBJECT_NAME><OBJECT_ID>2025-088V</OBJECT_ID><CENTER_NAME>EARTH</CENTER_NAME><REF_FRAME>TEME</REF_FRAME><TIME_SYSTEM>UTC</TIME_SYSTEM><MEAN_ELEMENT_THEORY>SGP4</MEAN_ELEMENT_THEORY></metadata><data><meanElements><EPOCH>2025-12-31T07:17:29.592672</EPOCH><MEAN_MOTION>14.79921777</MEAN_MOTION><ECCENTRICITY>.00142639</ECCENTRICITY><INCLINATION>51.9011</INCLINATION><RA_OF_ASC_NODE>52.9409</RA_OF_ASC_NODE><ARG_OF_PERICENTER>201.6817</ARG_OF_PERICENTER><MEAN_ANOMALY>158.3543</MEAN_ANOMALY></meanElements><tleParameters><EPHEMERIS_TYPE>0</EPHEMERIS_TYPE><CLASSIFICATION_TYPE>U</CLASSIFICATION_TYPE><NORAD_CAT_ID>63743</NORAD_CAT_ID><ELEMENT_SET_NO>999</ELEMENT_SET_NO><REV_AT_EPOCH>3750</REV_AT_EPOCH><BSTAR>-.21521325E-3</BSTAR><MEAN_MOTION_DOT>-.1868E-4</MEAN_MOTION_DOT><MEAN_MOTION_DDOT>0</MEAN_MOTION_DDOT></tleParameters></data></segment></body></omm>
<omm id="CCSDS_OMM_VERS" version="2.0">
<header><CREATION_DATE/><ORIGINATOR/></header><body><segment><metadata><OBJECT_NAME>KUIPER-00031</OBJECT_NAME><OBJECT_ID>2025-088W</OBJECT_ID><CENTER_NAME>EARTH</CENTER_NAME><REF_FRAME>TEME</REF_FRAME><TIME_SYSTEM>UTC</TIME_SYSTEM><MEAN_ELEMENT_THEORY>SGP4</MEAN_ELEMENT_THEORY></metadata><data><meanElements><EPOCH>2025-12-31T06:01:26.952960</EPOCH><MEAN_MOTION>14.79885486</MEAN_MOTION><ECCENTRICITY>.00027249</ECCENTRICITY><INCLINATION>51.9008</INCLINATION><RA_OF_ASC_NODE>39.2464</RA_OF_ASC_NODE><ARG_OF_PERICENTER>251.9551</ARG_OF_PERICENTER><MEAN_ANOMALY>108.1114</MEAN_ANOMALY></meanElements><tleParameters><EPHEMERIS_TYPE>0</EPHEMERIS_TYPE><CLASSIFICATION_TYPE>U</CLASSIFICATION_TYPE><NORAD_CAT_ID>63744</NORAD_CAT_ID><ELEMENT_SET_NO>999</ELEMENT_SET_NO><REV_AT_EPOCH>3740</REV_AT_EPOCH><BSTAR>.98101893E-3</BSTAR><MEAN_MOTION_DOT>.7257E-4</MEAN_MOTION_DOT><MEAN_MOTION_DDOT>0</MEAN_MOTION_DDOT></tleParameters></data></segment></body></omm>
<omm id="CCSDS_OMM_VERS" version="2.0">
<header><CREATION_DATE/><ORIGINATOR/></header><body><segment><metadata><OBJECT_NAME>KUIPER-00032</OBJECT_NAME><OBJECT_ID>2025-088X</OBJECT_ID><CENTER_NAME>EARTH</CENTER_NAME><REF_FRAME>TEME</REF_FRAME><TIME_SYSTEM>UTC</TIME_SYSTEM><MEAN_ELEMENT_THEORY>SGP4</MEAN_ELEMENT_THEORY></metadata><data><meanElements><EPOCH>2025-12-31T06:29:45.347136</EPOCH><MEAN_MOTION>15.34217496</MEAN_MOTION><ECCENTRICITY>.00028523</ECCENTRICITY><INCLINATION>51.8720</INCLINATION><RA_OF_ASC_NODE>354.2091</RA_OF_ASC_NODE><ARG_OF_PERICENTER>242.9871</ARG_OF_PERICENTER><MEAN_ANOMALY>117.0823</MEAN_ANOMALY></meanElements><tleParameters><EPHEMERIS_TYPE>0</EPHEMERIS_TYPE><CLASSIFICATION_TYPE>U</CLASSIFICATION_TYPE><NORAD_CAT_ID>63745</NORAD_CAT_ID><ELEMENT_SET_NO>999</ELEMENT_SET_NO><REV_AT_EPOCH>3903</REV_AT_EPOCH><BSTAR>.70387513E-3</BSTAR><MEAN_MOTION_DOT>.23365E-3</MEAN_MOTION_DOT><MEAN_MOTION_DDOT>0</MEAN_MOTION_DDOT></tleParameters></data></segment></body></omm>
<omm id="CCSDS_OMM_VERS" version="2.0">
<header><CREATION_DATE/><ORIGINATOR/></header><body><segment><metadata><OBJECT_NAME>KUIPER-00033</OBJECT_NAME><OBJECT_ID>2025-088Y</OBJECT_ID><CENTER_NAME>EARTH</CENTER_NAME><REF_FRAME>TEME</REF_FRAME><TIME_SYSTEM>UTC</TIME_SYSTEM><MEAN_ELEMENT_THEORY>SGP4</MEAN_ELEMENT_THEORY></metadata><data><meanElements><EPOCH>2025-12-31T05:14:45.277440</EPOCH><MEAN_MOTION>14.79909115</MEAN_MOTION><ECCENTRICITY>.00009977</ECCENTRICITY><INCLINATION>51.8932</INCLINATION><RA_OF_ASC_NODE>69.3730</RA_OF_ASC_NODE><ARG_OF_PERICENTER>11.1720</ARG_OF_PERICENTER><MEAN_ANOMALY>348.9264</MEAN_ANOMALY></meanElements><tleParameters><EPHEMERIS_TYPE>0</EPHEMERIS_TYPE><CLASSIFICATION_TYPE>U</CLASSIFICATION_TYPE><NORAD_CAT_ID>63746</NORAD_CAT_ID><ELEMENT_SET_NO>999</ELEMENT_SET_NO><REV_AT_EPOCH>3746</REV_AT_EPOCH><BSTAR>.14649664E-3</BSTAR><MEAN_MOTION_DOT>.895E-5</MEAN_MOTION_DOT><MEAN_MOTION_DDOT>0</MEAN_MOTION_DDOT></tleParameters></data></segment></body></omm>
<omm id="CCSDS_OMM_VERS" version="2.0">
<header><CREATION_DATE/><ORIGINATOR/></header><body><segment><metadata><OBJECT_NAME>KUIPER-00034</OBJECT_NAME><OBJECT_ID>2025-088Z</OBJECT_ID><CENTER_NAME>EARTH</CENTER_NAME><REF_FRAME>TEME</REF_FRAME><TIME_SYSTEM>UTC</TIME_SYSTEM><MEAN_ELEMENT_THEORY>SGP4</MEAN_ELEMENT_THEORY></metadata><data><meanElements><EPOCH>2025-12-31T06:12:56.352384</EPOCH><MEAN_MOTION>14.79950579</MEAN_MOTION><ECCENTRICITY>.00006201</ECCENTRICITY><INCLINATION>51.9021</INCLINATION><RA_OF_ASC_NODE>31.7118</RA_OF_ASC_NODE><ARG_OF_PERICENTER>318.5911</ARG_OF_PERICENTER><MEAN_ANOMALY>41.5004</MEAN_ANOMALY></meanElements><tleParameters><EPHEMERIS_TYPE>0</EPHEMERIS_TYPE><CLASSIFICATION_TYPE>U</CLASSIFICATION_TYPE><NORAD_CAT_ID>63747</NORAD_CAT_ID><ELEMENT_SET_NO>999</ELEMENT_SET_NO><REV_AT_EPOCH>3767</REV_AT_EPOCH><BSTAR>.17713636E-3</BSTAR><MEAN_MOTION_DOT>.113E-4</MEAN_MOTION_DOT><MEAN_MOTION_DDOT>0</MEAN_MOTION_DDOT></tleParameters></data></segment></body></omm>

</ndm>
